NORAD_CAT_ID,OBJECT_NAME,OBJECT_TYPE,EPOCH,MEAN_MOTION,ECCENTRICITY,INCLINATION,RA_OF_ASC_NODE,ARG_OF_PERICENTER,MEAN_ANOMALY,BSTAR,MEAN_MOTION_DOT,MEAN_MOTION_DDOT,TLE_LINE0,TLE_LINE1,TLE_LINE2,SEMIMAJOR_AXIS,PERIOD,APOGEE,PERIGEE,DECAYED
55292.0,STARLINK-5325,PAYLOAD,2023-06-13 14:00:01,15.02850696,0.0003112,70.0024,26.0766,267.5279,71.7272,-0.075398,-0.00934462,0.0,0 STARLINK-5325,1 55292U 23010Z   23164.58334491 -.00934462  00000-0 -75398-1 0  9995,2 55292  70.0024  26.0766 0003112 267.5279  71.7272 15.02850696  1302,6936.248,95.818,560.272,555.955,0.0
55292.0,STARLINK-5325,PAYLOAD,2023-06-13 22:00:00,15.02153402,0.0003099,70.0023,25.2307,273.9845,67.7794,-0.07139,-0.00873173,0.0,0 STARLINK-5325,1 55292U 23010Z   23164.91667824 -.00873173  00000-0 -71390-1 0  9990,2 55292  70.0023  25.2307 0003099 273.9845  67.7794 15.02153402 23205,6938.394,95.862,562.41,558.109,0.0
55292.0,STARLINK-5325,PAYLOAD,2023-06-14 14:00:01,15.00898198,0.0003125,70.0022,23.5416,267.4953,76.8777,-0.08003,-0.00952166,0.0,0 STARLINK-5325,1 55292U 23010Z   23165.58334491 -.00952166  00000-0 -80030-1 0  9996,2 55292  70.0022  23.5416 0003125 267.4953  76.8777 15.00898198 23303,6942.262,95.943,566.297,561.958,0.0
55292.0,STARLINK-5325,PAYLOAD,2023-06-14 22:00:00,15.00193696,0.0003047,70.0022,22.6982,273.999,70.5379,-0.07449,-0.0086572,0.0,0 STARLINK-5325,1 55292U 23010Z   23165.91667824 -.00865720  00000-0 -74490-1 0  9994,2 55292  70.0022  22.6982 0003047 273.9990  70.5379 15.00193696  1303,6944.436,95.988,568.417,564.185,0.0
55292.0,STARLINK-5325,PAYLOAD,2023-06-15 06:00:00,14.99418937,0.0002665,70.0018,21.8556,273.2462,70.6599,-0.016939,-0.00202123,0.0,0 STARLINK-5325,1 55292U 23010Z   23166.25001157 -.00202123  00000-0 -16939-1 0  9999,2 55292  70.0018  21.8556 0002665 273.2462  70.6599 14.99418937 23403,6946.827,96.037,570.544,566.841,0.0
55292.0,STARLINK-5325,PAYLOAD,2023-06-15 14:00:01,14.99298601,0.000259,70.0019,21.0137,266.7505,75.8499,0.0012515,0.00015252,0.0,0 STARLINK-5325,1 55292U 23010Z   23166.58334491  .00015252  00000-0  12515-2 0  9995,2 55292  70.0019  21.0137 0002590 266.7505  75.8499 14.99298601 23458,6947.199,96.045,570.864,567.265,0.0
55292.0,STARLINK-5325,PAYLOAD,2023-06-15 20:00:01,14.99301784,0.0002642,70.0019,20.3825,272.8286,338.7638,-0.0017393,-0.00021311,0.0,0 STARLINK-5325,1 55292U 23010Z   23166.83334491 -.00021311  00000-0 -17393-2 0  9997,2 55292  70.0019  20.3825 0002642 272.8286 338.7638 14.99301784  1309,6947.189,96.045,570.89,567.219,0.0
55292.0,STARLINK-5325,PAYLOAD,2023-06-16 06:00:00,14.99315918,0.0002645,70.0014,19.3302,273.4208,66.4717,-0.0033665,-0.00041062,0.0,0 STARLINK-5325,1 55292U 23010Z   23167.25001157 -.00041062  00000-0 -33665-2 0  9999,2 55292  70.0014  19.3302 0002645 273.4208  66.4717 14.99315918 23554,6947.146,96.044,570.848,567.173,0.0
55292.0,STARLINK-5325,PAYLOAD,2023-06-16 14:00:01,14.9930708,0.0002675,70.0017,18.4885,266.7518,71.7881,0.0024459,0.00029967,0.0,0 STARLINK-5325,1 55292U 23010Z   23167.58334491  .00029967  00000-0  24459-2 0  9994,2 55292  70.0017  18.4885 0002675 266.7518  71.7881 14.99307080 23603,6947.173,96.044,570.896,567.18,0.0
55292.0,STARLINK-5325,PAYLOAD,2023-06-16 22:00:00,14.99323415,0.0002705,70.0015,17.6467,271.9961,65.2168,-0.0044086,-0.00053658,0.0,0 STARLINK-5325,1 55292U 23010Z   23167.91667824 -.00053658  00000-0 -44086-2 0  9994,2 55292  70.0015  17.6467 0002705 271.9961  65.2168 14.99323415  1301,6947.123,96.043,570.867,567.108,0.0
55292.0,STARLINK-5325,PAYLOAD,2023-06-17 06:00:02,14.99290745,0.0002712,70.0012,16.8047,268.5659,67.3565,-0.0029849,-0.00036418,0.0,0 STARLINK-5325,1 55292U 23010Z   23168.25002315 -.00036418  00000-0 -29849-2 0  9995,2 55292  70.0012  16.8047 0002712 268.5659  67.3565 14.99290745 23708,6947.223,96.045,570.973,567.204,0.0
55292.0,STARLINK-5325,PAYLOAD,2023-06-17 12:30:45,14.99380463,0.000318,70.001,16.1216,262.748,97.3318,-0.0014744,-0.00018126,0.0,0 STARLINK-5325,1 55292U 23010Z   23168.52135959 -.00018126  00000-0 -14744-2 0  9990,2 55292  70.0010  16.1216 0003180 262.7480  97.3318 14.99380463 24050,6946.946,96.04,571.02,566.602,0.0
55292.0,STARLINK-5325,PAYLOAD,2023-06-17 20:31:09,14.99289653,0.0002544,69.9996,15.2769,268.4007,91.6861,-0.00010577,-1.387e-05,0.0,0 STARLINK-5325,1 55292U 23010Z   23168.85496639 -.00001387  00000-0 -10577-3 0  9993,2 55292  69.9996  15.2769 0002544 268.4007  91.6861 14.99289653 24109,6947.227,96.045,570.859,567.324,0.0
55292.0,STARLINK-5325,PAYLOAD,2023-06-17 22:00:01,14.99272543,0.0002728,70.0014,15.1212,269.749,63.4227,0.0024844,0.00030414,0.0,0 STARLINK-5325,1 55292U 23010Z   23168.91668981  .00030414  00000-0  24844-2 0  9993,2 55292  70.0014  15.1212 0002728 269.7490  63.4227 14.99272543 23808,6947.28,96.047,571.04,567.249,0.0
55292.0,STARLINK-5325,PAYLOAD,2023-06-18 12:31:52,14.99294739,0.0002631,69.9997,13.5924,268.4791,91.6067,-1.7361e-05,-3.06e-06,0.0,0 STARLINK-5325,1 55292U 23010Z   23169.52213213 -.00000306  00000-0 -17361-4 0  9992,2 55292  69.9997  13.5924 0002631 268.4791  91.6067 14.99294739 24201,6947.211,96.045,570.904,567.248,0.0
55292.0,STARLINK-5325,PAYLOAD,2023-06-18 22:00:00,14.99289523,0.0002725,70.0013,12.5959,270.4405,58.5911,0.0029121,0.00035709,0.0,0 STARLINK-5325,1 55292U 23010Z   23169.91667824  .00035709  00000-0  29121-2 0  9994,2 55292  70.0013  12.5959 0002725 270.4405  58.5911 14.99289523 23955,6947.227,96.045,570.985,567.199,0.0
55292.0,STARLINK-5325,PAYLOAD,2023-06-18 23:44:22,14.9930172,0.0002556,69.9998,12.4131,268.8255,91.2612,-2.2427e-05,-3.68e-06,0.0,0 STARLINK-5325,1 55292U 23010Z   23169.98914648 -.00000368  00000-0 -22427-4 0  9999,2 55292  69.9998  12.4131 0002556 268.8255  91.2612 14.99301720 23968,6947.19,96.045,570.83,567.279,0.0
55292.0,STARLINK-5325,PAYLOAD,2023-06-19 23:45:26,14.99305311,0.000264,69.9996,9.8856,268.4041,91.6817,0.00021182,2.499e-05,0.0,0 STARLINK-5325,1 55292U 23010Z   23170.98988828  .00002499  00000-0  21182-3 0  9993,2 55292  69.9996   9.8856 0002640 268.4041  91.6817 14.99305311 24112,6947.178,96.044,570.878,567.209,0.0
55292.0,STARLINK-5325,PAYLOAD,2023-06-20 06:09:44,14.99299619,0.0002254,70.0001,9.2112,272.436,87.6541,0.00011329,1.293e-05,0.0,0 STARLINK-5325,1 55292U 23010Z   23171.25676205  .00001293  00000-0  11329-3 0  9990,2 55292  70.0001   9.2112 0002254 272.4360  87.6541 14.99299619 24157,6947.196,96.045,570.627,567.495,0.0
55292.0,STARLINK-5325,PAYLOAD,2023-06-20 20:34:23,14.99298015,0.0002173,70.0007,7.696,263.2276,96.8636,-6.7812e-06,-1.77e-06,0.0,0 STARLINK-5325,1 55292U 23010Z   23171.85721709 -.00000177  00000-0 -67812-5 0  9998,2 55292  70.0007   7.6960 0002173 263.2276  96.8636 14.99298015 24550,6947.201,96.045,570.576,567.556,0.0
55292.0,STARLINK-5325,PAYLOAD,2023-06-21 12:35:06,14.99254506,0.0001929,70.0009,6.0111,267.1649,92.9289,0.00071456,8.649e-05,0.0,0 STARLINK-5325,1 55292U 23010Z   23172.52438344  .00008649  00000-0  71456-3 0  9990,2 55292  70.0009   6.0111 0001929 267.1649  92.9289 14.99254506 24343,6947.335,96.048,570.541,567.86,0.0
55292.0,STARLINK-5325,PAYLOAD,2023-06-21 14:11:10,14.99305633,0.0002311,70.0006,5.8431,262.9845,97.1051,-8.9231e-05,-1.185e-05,0.0,0 STARLINK-5325,1 55292U 23010Z   23172.59109772 -.00001185  00000-0 -89231-4 0  9998,2 55292  70.0006   5.8431 0002311 262.9845  97.1051 14.99305633 24666,6947.177,96.044,570.648,567.437,0.0
55292.0,STARLINK-5325,PAYLOAD,2023-06-21 18:59:23,14.99303998,0.0002405,70.0004,5.3374,265.1832,94.9053,-0.00010534,-1.383e-05,0.0,0 STARLINK-5325,1 55292U 23010Z   23172.79124900 -.00001383  00000-0 -10534-3 0  9999,2 55292  70.0004   5.3374 0002405 265.1832  94.9053 14.99303998 24388,6947.183,96.045,570.718,567.377,0.0
55292.0,STARLINK-5325,PAYLOAD,2023-06-22 19:00:28,14.992992,0.0002714,69.9998,2.8093,268.5715,91.5133,-8.8195e-06,-2.02e-06,0.0,0 STARLINK-5325,1 55292U 23010Z   23173.79200046 -.00000202  00000-0 -88195-5 0  9995,2 55292  69.9998   2.8093 0002714 268.5715  91.5133 14.99299200 24536,6947.197,96.045,570.948,567.177,0.0
55292.0,STARLINK-5325,PAYLOAD,2023-06-23 19:01:33,14.99302414,0.0002704,70.0,0.2822,267.7685,92.3165,4.0263e-05,3.99e-06,0.0,0 STARLINK-5325,1 55292U 23010Z   23174.79274917  .00000399  00000-0  40263-4 0  9992,2 55292  70.0000   0.2822 0002704 267.7685  92.3165 14.99302414 24683,6947.187,96.045,570.931,567.174,0.0
55292.0,STARLINK-5325,PAYLOAD,2023-06-24 22:15:12,14.99001613,0.0003152,69.9998,357.4193,271.389,88.6909,-0.0031852,-0.00038555,0.0,0 STARLINK-5325,1 55292U 23010Z   23175.92722312 -.00038555  00000-0 -31852-2 0  9994,2 55292  69.9998 357.4193 0003152 271.3890  88.6909 14.99001613 24851,6948.117,96.064,572.172,567.792,0.0
55292.0,STARLINK-5325,PAYLOAD,2023-06-25 12:40:23,14.9875419,0.0003494,69.9994,355.9014,262.2856,97.7906,-0.0051591,-0.00061789,0.0,0 STARLINK-5325,1 55292U 23010Z   23176.52804576 -.00061789  00000-0 -51591-2 0  9991,2 55292  69.9994 355.9014 0003494 262.2856  97.7906 14.98754190 24944,6948.881,96.08,573.174,568.318,0.0
55292.0,STARLINK-5325,PAYLOAD,2023-06-26 01:29:20,14.98654102,0.0003281,70.0002,354.5579,268.5059,91.5724,-0.0052099,-0.00062229,0.0,0 STARLINK-5325,1 55292U 23010Z   23177.06204081 -.00062229  00000-0 -52099-2 0  9990,2 55292  70.0002 354.5579 0003281 268.5059  91.5724 14.98654102 25028,6949.191,96.086,573.336,568.776,0.0
55292.0,STARLINK-5325,PAYLOAD,2023-06-26 04:40:49,14.99173273,0.0003797,69.9998,354.2188,301.4328,58.6459,0.00020998,2.468e-05,0.0,0 STARLINK-5325,1 55292U 23010Z   23177.19502164  .00002468  00000-0  20998-3 0  9998,2 55292  69.9998 354.2188 0003797 301.4328  58.6459 14.99173273 25047,6947.586,96.053,572.089,566.813,0.0
55292.0,STARLINK-5325,PAYLOAD,2023-06-27 14:00:01,14.98351927,0.0003227,70.002,350.7211,267.8863,16.4719,-0.0024556,-0.00029288,0.0,0 STARLINK-5325,1 55292U 23010Z   23178.58334491 -.00029288  00000-0 -24556-2 0  9992,2 55292  70.0020 350.7211 0003227 267.8863  16.4719 14.98351927 25258,6950.125,96.106,574.233,569.747,0.0
